IRIDIUM 63              
1 25286U 98021B   26008.44074484  .00000519  00000+0  16945-3 0  9996
2 25286  86.3990 356.0074 0002085  82.4896 277.6538 14.36763009453310
IRIDIUM 69              
1 25319U 98026A   26008.51465386  .00000515  00000+0  15344-3 0  9999
2 25319  86.3973   8.6154 0004511  76.8807 283.2896 14.41245441452637
IRIDIUM 71              
1 25320U 98026B   26008.49962853  .00000391  00000+0  11471-3 0  9998
2 25320  86.3976   3.2928 0004010 109.2386 250.9248 14.41338709453160
IRIDIUM 73              
1 25344U 98032C   26008.58651852  .00000874  00000+0  21124-3 0  9997
2 25344  86.4430 319.5804 0002636  72.1808 287.9685 14.52036613460363
IRIDIUM 82              
1 25467U 98051A   26008.47774289  .00053393  00000+0  91160-3 0  9993
2 25467  86.3599   7.6168 0055722 225.8213 133.8461 15.49326205455533
